{
    "links": {
        "self": "http://www.neowsapp.com/rest/v1/neo/3273785?api_key=iIulBulltgU6a56xZRHN4H3l9WmuAYTsLGpBGhQ2"
    },
    "id": "3273785",
    "neo_reference_id": "3273785",
    "name": "(2005 EL70)",
    "designation": "2005 EL70",
    "nasa_jpl_url": "http://ssd.jpl.nasa.gov/sbdb.cgi?sstr=3273785",
    "absolute_magnitude_h": 24.0,
    "estimated_diameter": {
        "kilometers": {
            "estimated_diameter_min": 0.0421264611,
            "estimated_diameter_max": 0.0941976306
        },
        "meters": {
            "estimated_diameter_min": 42.1264610556,
            "estimated_diameter_max": 94.1976305719
        },
        "miles": {
            "estimated_diameter_min": 0.0261761612,
            "estimated_diameter_max": 0.0585316759
        },
        "feet": {
            "estimated_diameter_min": 138.2101784897,
            "estimated_diameter_max": 309.0473542854
        }
    },
    "is_potentially_hazardous_asteroid": false,
    "close_approach_data": [
        {
            "close_approach_date": "2005-03-03",
            "close_approach_date_full": "2005-Mar-03 22:45",
            "epoch_date_close_approach": 1109889900000,
            "relative_velocity": {
                "kilometers_per_second": "35.451407774",
                "kilometers_per_hour": "127625.0679865015",
                "miles_per_hour": "79301.2540497237"
            },
            "miss_distance": {
                "astronomical": "0.0377409696",
                "lunar": "14.6812371744",
                "kilometers": "5645968.663894752",
                "miles": "3508242.2483894976"
            },
            "orbiting_body": "Earth"
        }
    ],
    "orbital_data": {
        "orbit_id": "6",
        "orbit_determination_date": "2017-04-06 09:11:22",
        "first_observation_date": "2005-03-08",
        "last_observation_date": "2005-03-10",
        "data_arc_in_days": 2,
        "observations_used": 18,
        "orbit_uncertainty": "9",
        "minimum_orbit_intersection": ".0141058",
        "jupiter_tisserand_invariant": "2.574",
        "epoch_osculation": "2453438.5",
        "eccentricity": ".9341846225852661",
        "semi_major_axis": "2.474573971553152",
        "inclination": "16.76397863631296",
        "ascending_node_longitude": "167.5674511969548",
        "orbital_period": "1421.834630198729",
        "perihelion_distance": ".1628650198784476",
        "perihelion_argument": "220.2184640136124",
        "aphelion_distance": "4.786282923227856",
        "perihelion_time": "2453396.978472384257",
        "mean_anomaly": "10.5130017402785",
        "mean_motion": ".253194001857785",
        "equinox": "J2000",
        "orbit_class": {
            "orbit_class_type": "APO",
            "orbit_class_description": "Near-Earth asteroid orbits which cross the Earth’s orbit similar to that of 1862 Apollo",
            "orbit_class_range": "a (semi-major axis) > 1.0 AU; q (perihelion) < 1.017 AU"
        }
    },
    "is_sentry_object": false
}